{
  "type": "FeatureCollection",
  "features": [
    {
      "type": "Feature",
      "properties": {
        "norad_id": 42988,
        "name": "SKYSAT-C10",
        "group": "resource",
        "lat": -8.134574314305432,
        "lon": -67.77563122005476,
        "alt_km": 473.1056065498533,
        "timestamp": "2025-12-08T10:52:02.606943+00:00",
        "meta_object_name": "SKYSAT-C10",
        "meta_object_id": "2017-068B",
        "meta_epoch": "2025-12-07T21:30:28.641312",
        "meta_mean_motion": 15.31905216,
        "meta_eccentricity": 0.00052946,
        "meta_inclination": 97.4263,
        "meta_ra_of_asc_node": 112.7347,
        "meta_arg_of_pericenter": 117.2723,
        "meta_mean_anomaly": 242.9058,
        "meta_ephemeris_type": 0,
        "meta_classification_type": "U",
        "meta_norad_cat_id": 42988,
        "meta_element_set_no": 999,
        "meta_rev_at_epoch": 45305,
        "meta_bstar": 0.00046023783,
        "meta_mean_motion_dot": 0.00014116,
        "meta_mean_motion_ddot": 0,
        "tle_line1": "1 42988U 17068B   25341.89616483  .00014116  00000+0  46024-3 0  9994",
        "tle_line2": "2 42988  97.4263 112.7347 0005294 117.2723 242.9058 15.31905216453052"
      },
      "geometry": {
        "type": "Point",
        "coordinates": [
          -67.77563122005476,
          -8.134574314305432
        ]
      }
    },
    {
      "type": "Feature",
      "properties": {
        "norad_id": 42989,
        "name": "SKYSAT-C9",
        "group": "resource",
        "lat": -25.652081561402998,
        "lon": 116.2615775383313,
        "alt_km": 468.4664741963252,
        "timestamp": "2025-12-08T10:52:02.606953+00:00",
        "meta_object_name": "SKYSAT-C9",
        "meta_object_id": "2017-068C",
        "meta_epoch": "2025-12-07T20:54:25.807392",
        "meta_mean_motion": 15.35863074,
        "meta_eccentricity": 0.00106797,
        "meta_inclination": 97.4193,
        "meta_ra_of_asc_node": 112.0876,
        "meta_arg_of_pericenter": 103.5888,
        "meta_mean_anomaly": 256.6546,
        "meta_ephemeris_type": 0,
        "meta_classification_type": "U",
        "meta_norad_cat_id": 42989,
        "meta_element_set_no": 999,
        "meta_rev_at_epoch": 45333,
        "meta_bstar": 0.00048253992,
        "meta_mean_motion_dot": 0.00016806,
        "meta_mean_motion_ddot": 0,
        "tle_line1": "1 42989U 17068C   25341.87113203  .00016806  00000+0  48254-3 0  9990",
        "tle_line2": "2 42989  97.4193 112.0876 0010679 103.5888 256.6546 15.35863074453332"
      },
      "geometry": {
        "type": "Point",
        "coordinates": [
          116.2615775383313,
          -25.652081561402998
        ]
      }
    },
    {
      "type": "Feature",
      "properties": {
        "norad_id": 42990,
        "name": "SKYSAT-C8",
        "group": "resource",
        "lat": -6.8596878229497005,
        "lon": 113.33441577605116,
        "alt_km": 470.2063049080698,
        "timestamp": "2025-12-08T10:52:02.606963+00:00",
        "meta_object_name": "SKYSAT-C8",
        "meta_object_id": "2017-068D",
        "meta_epoch": "2025-12-07T22:21:46.869408",
        "meta_mean_motion": 15.32758177,
        "meta_eccentricity": 0.00019245,
        "meta_inclination": 97.4284,
        "meta_ra_of_asc_node": 111.912,
        "meta_arg_of_pericenter": 7.0155,
        "meta_mean_anomaly": 353.1114,
        "meta_ephemeris_type": 0,
        "meta_classification_type": "U",
        "meta_norad_cat_id": 42990,
        "meta_element_set_no": 999,
        "meta_rev_at_epoch": 45297,
        "meta_bstar": 0.00045816051,
        "meta_mean_motion_dot": 0.00014427,
        "meta_mean_motion_ddot": 0,
        "tle_line1": "1 42990U 17068D   25341.93179247  .00014427  00000+0  45816-3 0  9997",
        "tle_line2": "2 42990  97.4284 111.9120 0001924   7.0155 353.1114 15.32758177452970"
      },
      "geometry": {
        "type": "Point",
        "coordinates": [
          113.33441577605116,
          -6.8596878229497005
        ]
      }
    },
    {
      "type": "Feature",
      "properties": {
        "norad_id": 42991,
        "name": "SKYSAT-C7",
        "group": "resource",
        "lat": -37.56534393719341,
        "lon": -72.28017388027428,
        "alt_km": 480.3107363681165,
        "timestamp": "2025-12-08T10:52:02.606973+00:00",
        "meta_object_name": "SKYSAT-C7",
        "meta_object_id": "2017-068E",
        "meta_epoch": "2025-12-07T21:22:50.756736",
        "meta_mean_motion": 15.32165709,
        "meta_eccentricity": 0.00078418,
        "meta_inclination": 97.4292,
        "meta_ra_of_asc_node": 112.9162,
        "meta_arg_of_pericenter": 72.2847,
        "meta_mean_anomaly": 287.925,
        "meta_ephemeris_type": 0,
        "meta_classification_type": "U",
        "meta_norad_cat_id": 42991,
        "meta_element_set_no": 999,
        "meta_rev_at_epoch": 45303,
        "meta_bstar": 0.00046187748,
        "meta_mean_motion_dot": 0.0001429,
        "meta_mean_motion_ddot": 0,
        "tle_line1": "1 42991U 17068E   25341.89086524  .00014290  00000+0  46188-3 0  9999",
        "tle_line2": "2 42991  97.4292 112.9162 0007841  72.2847 287.9250 15.32165709453039"
      },
      "geometry": {
        "type": "Point",
        "coordinates": [
          -72.28017388027428,
          -37.56534393719341
        ]
      }
    },
    {
      "type": "Feature",
      "properties": {
        "norad_id": 42992,
        "name": "SKYSAT-C6",
        "group": "resource",
        "lat": -12.518371710839444,
        "lon": 115.58273998911228,
        "alt_km": 477.35678292617104,
        "timestamp": "2025-12-08T10:52:02.606983+00:00",
        "meta_object_name": "SKYSAT-C6",
        "meta_object_id": "2017-068F",
        "meta_epoch": "2025-12-07T22:22:34.712544",
        "meta_mean_motion": 15.31336682,
        "meta_eccentricity": 0.00052066,
        "meta_inclination": 97.4325,
        "meta_ra_of_asc_node": 113.4001,
        "meta_arg_of_pericenter": 95.6752,
        "meta_mean_anomaly": 264.5083,
        "meta_ephemeris_type": 0,
        "meta_classification_type": "U",
        "meta_norad_cat_id": 42992,
        "meta_element_set_no": 999,
        "meta_rev_at_epoch": 45302,
        "meta_bstar": 0.00046918669,
        "meta_mean_motion_dot": 0.00014139,
        "meta_mean_motion_ddot": 0,
        "tle_line1": "1 42992U 17068F   25341.93234621  .00014139  00000+0  46919-3 0  9992",
        "tle_line2": "2 42992  97.4325 113.4001 0005206  95.6752 264.5083 15.31336682453025"
      },
      "geometry": {
        "type": "Point",
        "coordinates": [
          115.58273998911228,
          -12.518371710839444
        ]
      }
    },
    {
      "type": "Feature",
      "properties": {
        "norad_id": 43111,
        "name": "CARTOSAT-2F",
        "group": "resource",
        "lat": -76.24859467261209,
        "lon": 72.39450840054829,
        "alt_km": 515.9617381401704,
        "timestamp": "2025-12-08T10:52:02.606993+00:00",
        "meta_object_name": "CARTOSAT-2F",
        "meta_object_id": "2018-004A",
        "meta_epoch": "2025-12-07T22:33:57.074688",
        "meta_mean_motion": 15.19201081,
        "meta_eccentricity": 6.881e-05,
        "meta_inclination": 97.4319,
        "meta_ra_of_asc_node": 39.6552,
        "meta_arg_of_pericenter": 139.8266,
        "meta_mean_anomaly": 220.3019,
        "meta_ephemeris_type": 0,
        "meta_classification_type": "U",
        "meta_norad_cat_id": 43111,
        "meta_element_set_no": 999,
        "meta_rev_at_epoch": 43829,
        "meta_bstar": 0.00031622771,
        "meta_mean_motion_dot": 6.589e-05,
        "meta_mean_motion_ddot": 0,
        "tle_line1": "1 43111U 18004A   25341.94024392  .00006589  00000+0  31623-3 0  9996",
        "tle_line2": "2 43111  97.4319  39.6552 0000688 139.8266 220.3019 15.19201081438293"
      },
      "geometry": {
        "type": "Point",
        "coordinates": [
          72.39450840054829,
          -76.24859467261209
        ]
      }
    },
    {
      "type": "Feature",
      "properties": {
        "norad_id": 43259,
        "name": "GAOFEN-1 02",
        "group": "resource",
        "lat": -12.919936452296074,
        "lon": 42.10824386730757,
        "alt_km": 645.4926048352418,
        "timestamp": "2025-12-08T10:52:02.607004+00:00",
        "meta_object_name": "GAOFEN-1 02",
        "meta_object_id": "2018-031A",
        "meta_epoch": "2025-12-07T21:54:52.118208",
        "meta_mean_motion": 14.76464327,
        "meta_eccentricity": 0.00014486,
        "meta_inclination": 98.0813,
        "meta_ra_of_asc_node": 39.7005,
        "meta_arg_of_pericenter": 231.6382,
        "meta_mean_anomaly": 128.4697,
        "meta_ephemeris_type": 0,
        "meta_classification_type": "U",
        "meta_norad_cat_id": 43259,
        "meta_element_set_no": 999,
        "meta_rev_at_epoch": 41447,
        "meta_bstar": 0.00023989451,
        "meta_mean_motion_dot": 1.618e-05,
        "meta_mean_motion_ddot": 0,
        "tle_line1": "1 43259U 18031A   25341.91310322  .00001618  00000+0  23989-3 0  9991",
        "tle_line2": "2 43259  98.0813  39.7005 0001448 231.6382 128.4697 14.76464327414471"
      },
      "geometry": {
        "type": "Point",
        "coordinates": [
          42.10824386730757,
          -12.919936452296074
        ]
      }
    }
  ]
}